[{"OBJECT_NAME":"ONEWEB-0280","OBJECT_ID":"2021-060AH","EPOCH":"2025-10-08T06:47:20.234112","MEAN_MOTION":13.16592522,"ECCENTRICITY":0.00021634,"INCLINATION":87.897,"RA_OF_ASC_NODE":278.9658,"ARG_OF_PERICENTER":98.3586,"MEAN_ANOMALY":261.7791,"EPHEMERIS_TYPE":0,"CLASSIFICATION_TYPE":"U","NORAD_CAT_ID":48998,"ELEMENT_SET_NO":999,"REV_AT_EPOCH":20641,"BSTAR":0.00037612793,"MEAN_MOTION_DOT":1.57e-6,"MEAN_MOTION_DDOT":0},{"OBJECT_NAME":"ONEWEB-0281","OBJECT_ID":"2021-060AJ","EPOCH":"2025-10-08T06:55:20.224992","MEAN_MOTION":13.16595906,"ECCENTRICITY":0.00018086,"INCLINATION":87.8965,"RA_OF_ASC_NODE":278.9615,"ARG_OF_PERICENTER":88.0565,"MEAN_ANOMALY":272.0773,"EPHEMERIS_TYPE":0,"CLASSIFICATION_TYPE":"U","NORAD_CAT_ID":48999,"ELEMENT_SET_NO":999,"REV_AT_EPOCH":20648,"BSTAR":0.00048193753,"MEAN_MOTION_DOT":1.97e-6,"MEAN_MOTION_DDOT":0},{"OBJECT_NAME":"ONEWEB-0282","OBJECT_ID":"2021-060AK","EPOCH":"2025-10-08T05:49:12.729216","MEAN_MOTION":13.16593108,"ECCENTRICITY":0.00018452,"INCLINATION":87.8971,"RA_OF_ASC_NODE":278.9812,"ARG_OF_PERICENTER":95.0501,"MEAN_ANOMALY":265.0841,"EPHEMERIS_TYPE":0,"CLASSIFICATION_TYPE":"U","NORAD_CAT_ID":49000,"ELEMENT_SET_NO":999,"REV_AT_EPOCH":20645,"BSTAR":-0.00010086217,"MEAN_MOTION_DOT":-2.6e-7,"MEAN_MOTION_DDOT":0},{"OBJECT_NAME":"ONEWEB-0283","OBJECT_ID":"2021-060AL","EPOCH":"2025-10-08T05:33:15.181344","MEAN_MOTION":13.16593178,"ECCENTRICITY":0.00017066,"INCLINATION":87.8961,"RA_OF_ASC_NODE":278.9843,"ARG_OF_PERICENTER":93.3111,"MEAN_ANOMALY":266.8215,"EPHEMERIS_TYPE":0,"CLASSIFICATION_TYPE":"U","NORAD_CAT_ID":49001,"ELEMENT_SET_NO":999,"REV_AT_EPOCH":20646,"BSTAR":-9.6684195e-5,"MEAN_MOTION_DOT":-2.4e-7,"MEAN_MOTION_DDOT":0},{"OBJECT_NAME":"ONEWEB-0284","OBJECT_ID":"2021-060AM","EPOCH":"2025-10-08T05:24:07.245504","MEAN_MOTION":13.16592537,"ECCENTRICITY":0.0002243,"INCLINATION":87.8975,"RA_OF_ASC_NODE":278.9696,"ARG_OF_PERICENTER":94.2568,"MEAN_ANOMALY":265.8819,"EPHEMERIS_TYPE":0,"CLASSIFICATION_TYPE":"U","NORAD_CAT_ID":49002,"ELEMENT_SET_NO":999,"REV_AT_EPOCH":20644,"BSTAR":0.00034396234,"MEAN_MOTION_DOT":1.44e-6,"MEAN_MOTION_DDOT":0},{"OBJECT_NAME":"ONEWEB-0285","OBJECT_ID":"2021-075A","EPOCH":"2025-10-08T07:48:16.821216","MEAN_MOTION":13.12442363,"ECCENTRICITY":0.00017509,"INCLINATION":87.8948,"RA_OF_ASC_NODE":40.6911,"ARG_OF_PERICENTER":101.0948,"MEAN_ANOMALY":259.0378,"EPHEMERIS_TYPE":0,"CLASSIFICATION_TYPE":"U","NORAD_CAT_ID":49075,"ELEMENT_SET_NO":999,"REV_AT_EPOCH":20217,"BSTAR":0.0013692062,"MEAN_MOTION_DOT":5.05e-6,"MEAN_MOTION_DDOT":0},{"OBJECT_NAME":"ONEWEB-0286","OBJECT_ID":"2021-075B","EPOCH":"2025-10-08T07:22:11.034624","MEAN_MOTION":13.12442362,"ECCENTRICITY":0.00018129,"INCLINATION":87.895,"RA_OF_ASC_NODE":40.731,"ARG_OF_PERICENTER":94.9488,"MEAN_ANOMALY":265.1847,"EPHEMERIS_TYPE":0,"CLASSIFICATION_TYPE":"U","NORAD_CAT_ID":49076,"ELEMENT_SET_NO":999,"REV_AT_EPOCH":20152,"BSTAR":0.00033738846,"MEAN_MOTION_DOT":1.34e-6,"MEAN_MOTION_DDOT":0},{"OBJECT_NAME":"ONEWEB-0287","OBJECT_ID":"2021-075C","EPOCH":"2025-10-08T06:52:22.770624","MEAN_MOTION":13.17650276,"ECCENTRICITY":0.00018278,"INCLINATION":87.9095,"RA_OF_ASC_NODE":55.9571,"ARG_OF_PERICENTER":87.1793,"MEAN_ANOMALY":272.9547,"EPHEMERIS_TYPE":0,"CLASSIFICATION_TYPE":"U","NORAD_CAT_ID":49077,"ELEMENT_SET_NO":999,"REV_AT_EPOCH":20045,"BSTAR":-1.5371744e-5,"MEAN_MOTION_DOT":7.0e-8,"MEAN_MOTION_DDOT":0},{"OBJECT_NAME":"ONEWEB-0288","OBJECT_ID":"2021-075D","EPOCH":"2025-10-08T06:47:20.400864","MEAN_MOTION":13.12442794,"ECCENTRICITY":0.00018364,"INCLINATION":87.8951,"RA_OF_ASC_NODE":40.6945,"ARG_OF_PERICENTER":99.0519,"MEAN_ANOMALY":261.0818,"EPHEMERIS_TYPE":0,"CLASSIFICATION_TYPE":"U","NORAD_CAT_ID":49078,"ELEMENT_SET_NO":999,"REV_AT_EPOCH":20214,"BSTAR":-0.0009302591,"MEAN_MOTION_DOT":-3.22e-6,"MEAN_MOTION_DDOT":0},{"OBJECT_NAME":"ONEWEB-0289","OBJECT_ID":"2021-075E","EPOCH":"2025-10-08T07:48:03.831840","MEAN_MOTION":13.17648005,"ECCENTRICITY":0.00020441,"INCLINATION":87.9083,"RA_OF_ASC_NODE":55.9719,"ARG_OF_PERICENTER":104.6299,"MEAN_ANOMALY":255.506,"EPHEMERIS_TYPE":0,"CLASSIFICATION_TYPE":"U","NORAD_CAT_ID":49079,"ELEMENT_SET_NO":999,"REV_AT_EPOCH":20103,"BSTAR":-0.00033103564,"MEAN_MOTION_DOT":-1.16e-6,"MEAN_MOTION_DDOT":0},{"OBJECT_NAME":"ONEWEB-0290","OBJECT_ID":"2021-075F","EPOCH":"2025-10-08T07:09:24.547392","MEAN_MOTION":13.17649196,"ECCENTRICITY":0.00020188,"INCLINATION":87.9091,"RA_OF_ASC_NODE":55.9332,"ARG_OF_PERICENTER":110.9249,"MEAN_ANOMALY":249.2099,"EPHEMERIS_TYPE":0,"CLASSIFICATION_TYPE":"U","NORAD_CAT_ID":49080,"ELEMENT_SET_NO":999,"REV_AT_EPOCH":20044,"BSTAR":-6.0149127e-5,"MEAN_MOTION_DOT":-1.0e-7,"MEAN_MOTION_DDOT":0},{"OBJECT_NAME":"ONEWEB-0291","OBJECT_ID":"2021-075G","EPOCH":"2025-10-08T06:47:32.544384","MEAN_MOTION":13.17649226,"ECCENTRICITY":0.00020789,"INCLINATION":87.9091,"RA_OF_ASC_NODE":55.942,"ARG_OF_PERICENTER":93.7116,"MEAN_ANOMALY":266.4253,"EPHEMERIS_TYPE":0,"CLASSIFICATION_TYPE":"U","NORAD_CAT_ID":49081,"ELEMENT_SET_NO":999,"REV_AT_EPOCH":20043,"BSTAR":-1.8656792e-5,"MEAN_MOTION_DOT":6.0e-8,"MEAN_MOTION_DDOT":0},{"OBJECT_NAME":"ONEWEB-0293","OBJECT_ID":"2021-075H","EPOCH":"2025-10-08T07:23:59.306784","MEAN_MOTION":13.17649558,"ECCENTRICITY":0.00017545,"INCLINATION":87.909,"RA_OF_ASC_NODE":55.964,"ARG_OF_PERICENTER":99.8636,"MEAN_ANOMALY":260.2693,"EPHEMERIS_TYPE":0,"CLASSIFICATION_TYPE":"U","NORAD_CAT_ID":49082,"ELEMENT_SET_NO":999,"REV_AT_EPOCH":20046,"BSTAR":0.0002259528,"MEAN_MOTION_DOT":1.01e-6,"MEAN_MOTION_DDOT":0},{"OBJECT_NAME":"ONEWEB-0294","OBJECT_ID":"2021-075J","EPOCH":"2025-10-08T06:56:40.500960","MEAN_MOTION":13.12442558,"ECCENTRICITY":0.00021636,"INCLINATION":87.895,"RA_OF_ASC_NODE":40.6938,"ARG_OF_PERICENTER":107.3149,"MEAN_ANOMALY":252.8216,"EPHEMERIS_TYPE":0,"CLASSIFICATION_TYPE":"U","NORAD_CAT_ID":49083,"ELEMENT_SET_NO":999,"REV_AT_EPOCH":20153,"BSTAR":-0.00096580967,"MEAN_MOTION_DOT":-3.35e-6,"MEAN_MOTION_DDOT":0},{"OBJECT_NAME":"ONEWEB-0295","OBJECT_ID":"2021-075K","EPOCH":"2025-10-08T07:22:45.549696","MEAN_MOTION":13.17650248,"ECCENTRICITY":0.00020264,"INCLINATION":87.9089,"RA_OF_ASC_NODE":55.9684,"ARG_OF_PERICENTER":91.0944,"MEAN_ANOMALY":269.042,"EPHEMERIS_TYPE":0,"CLASSIFICATION_TYPE":"U","NORAD_CAT_ID":49084,"ELEMENT_SET_NO":999,"REV_AT_EPOCH":20042,"BSTAR":7.5647864e-5,"MEAN_MOTION_DOT":4.2e-7,"MEAN_MOTION_DDOT":0},{"OBJECT_NAME":"ONEWEB-0296","OBJECT_ID":"2021-075L","EPOCH":"2025-10-08T06:28:40.281888","MEAN_MOTION":13.12442098,"ECCENTRICITY":0.00022318,"INCLINATION":87.8952,"RA_OF_ASC_NODE":40.7033,"ARG_OF_PERICENTER":97.3927,"MEAN_ANOMALY":262.7456,"EPHEMERIS_TYPE":0,"CLASSIFICATION_TYPE":"U","NORAD_CAT_ID":49085,"ELEMENT_SET_NO":999,"REV_AT_EPOCH":20153,"BSTAR":-0.00018367823,"MEAN_MOTION_DOT":-5.3e-7,"MEAN_MOTION_DDOT":0}]
