ONEWEB-0280             
1 48998U 21060AH  25281.28287308  .00000157  00000+0  37613-3 0  9998
2 48998  87.8970 278.9658 0002163  98.3586 261.7791 13.16592522206417
ONEWEB-0281             
1 48999U 21060AJ  25281.28842853  .00000197  00000+0  48194-3 0  9991
2 48999  87.8965 278.9615 0001808  88.0565 272.0773 13.16595906206484
ONEWEB-0282             
1 49000U 21060AK  25281.24250844 -.00000026  00000+0 -10086-3 0  9996
2 49000  87.8971 278.9812 0001845  95.0501 265.0841 13.16593108206450
ONEWEB-0283             
1 49001U 21060AL  25281.23142571 -.00000024  00000+0 -96684-4 0  9990
2 49001  87.8961 278.9843 0001706  93.3111 266.8215 13.16593178206460
ONEWEB-0284             
1 49002U 21060AM  25281.22508386  .00000144  00000+0  34396-3 0  9992
2 49002  87.8975 278.9696 0002243  94.2568 265.8819 13.16592537206440
ONEWEB-0285             
1 49075U 21075A   25281.32519469  .00000505  00000+0  13692-2 0  9999
2 49075  87.8948  40.6911 0001750 101.0948 259.0378 13.12442363202173
ONEWEB-0286             
1 49076U 21075B   25281.30707216  .00000134  00000+0  33739-3 0  9990
2 49076  87.8950  40.7310 0001812  94.9488 265.1847 13.12442362201525
ONEWEB-0287             
1 49077U 21075C   25281.28637466  .00000007  00000+0 -15372-4 0  9991
2 49077  87.9095  55.9571 0001827  87.1793 272.9547 13.17650276200457
ONEWEB-0288             
1 49078U 21075D   25281.28287501 -.00000322  00000+0 -93026-3 0  9995
2 49078  87.8951  40.6945 0001836  99.0519 261.0818 13.12442794202149
ONEWEB-0289             
1 49079U 21075E   25281.32504435 -.00000116  00000+0 -33104-3 0  9991
2 49079  87.9083  55.9719 0002044 104.6299 255.5060 13.17648005201037
ONEWEB-0290             
1 49080U 21075F   25281.29820078 -.00000010  00000+0 -60149-4 0  9996
2 49080  87.9091  55.9332 0002018 110.9249 249.2099 13.17649196200443
ONEWEB-0291             
1 49081U 21075G   25281.28301556  .00000006  00000+0 -18657-4 0  9992
2 49081  87.9091  55.9420 0002078  93.7116 266.4253 13.17649226200435
ONEWEB-0293             
1 49082U 21075H   25281.30832531  .00000101  00000+0  22595-3 0  9998
2 49082  87.9090  55.9640 0001754  99.8636 260.2693 13.17649558200464
ONEWEB-0294             
1 49083U 21075J   25281.28935765 -.00000335  00000+0 -96581-3 0  9996
2 49083  87.8950  40.6938 0002163 107.3149 252.8216 13.12442558201532
ONEWEB-0295             
1 49084U 21075K   25281.30747164  .00000042  00000+0  75648-4 0  9999
2 49084  87.9089  55.9684 0002026  91.0944 269.0420 13.17650248200420
ONEWEB-0296             
1 49085U 21075L   25281.26991067 -.00000053  00000+0 -18368-3 0  9997
2 49085  87.8952  40.7033 0002231  97.3927 262.7456 13.12442098201536
